2022-035A               
1 52200U 22035A   22098.14545959 -.00000044  00000+0  00000+0 0  9991
2 52200  98.4113 107.0107 0005073 229.5014 130.3650 14.44906179   161
2022-035B               
1 52201U 22035B   22098.07228690 -.00000060  00000+0  00000+0 0  9992
2 52201  98.3943 106.9574 0112799  47.8299  28.2460 14.70531350   155
2022-036A               
1 52202U 22036A   22098.08353782 -.00001394  44084-5  00000+0 0  9993
2 52202  67.1416 350.5842 0475363  91.9761  21.7047 14.99111546    97
2022-036B               
1 52203U 22036B   22098.08163256 -.00001413  44666-5  00000+0 0  9997
2 52203  67.1356 350.5689 0456416  92.1292  21.9868 15.04084524    84
